[{"OBJECT_NAME":"DONGPO 10","OBJECT_ID":"2022-167H","EPOCH":"2026-03-09T22:44:56.137344","MEAN_MOTION":15.322785,"ECCENTRICITY":0.00061655,"INCLINATION":97.685,"RA_OF_ASC_NODE":235.0962,"ARG_OF_PERICENTER":106.9526,"MEAN_ANOMALY":253.2392,"EPHEMERIS_TYPE":0,"CLASSIFICATION_TYPE":"U","NORAD_CAT_ID":54689,"ELEMENT_SET_NO":999,"REV_AT_EPOCH":18015,"BSTAR":0.00049390523,"MEAN_MOTION_DOT":0.00015333,"MEAN_MOTION_DDOT":0},{"OBJECT_NAME":"STARLINK-34481","OBJECT_ID":"2025-167AC","EPOCH":"2026-03-09T07:16:56.944704","MEAN_MOTION":15.30197964,"ECCENTRICITY":0.0001182,"INCLINATION":53.1604,"RA_OF_ASC_NODE":28.2391,"ARG_OF_PERICENTER":67.636,"MEAN_ANOMALY":292.4766,"EPHEMERIS_TYPE":0,"CLASSIFICATION_TYPE":"U","NORAD_CAT_ID":65104,"ELEMENT_SET_NO":999,"REV_AT_EPOCH":3342,"BSTAR":0.001586126,"MEAN_MOTION_DOT":0.00046911,"MEAN_MOTION_DDOT":0}]
